#aV2010  3 14  0  0   .00000000      96 DD+AD WGS84 FIT  NGA
## 1575       .00000000   900.00000000 55269  .0000000000000
+   31     1  2  3  4  5  6  7  8  9 10 11 12 13 14 15 16 17
+         18 19 20 21 22 23 24 26 27 28 29 30 31 32  0  0  0
+          0  0  0  0  0  0  0  0  0  0  0  0  0  0  0  0  0
+          0  0  0  0  0  0  0  0  0  0  0  0  0  0  0  0  0
+          0  0  0  0  0  0  0  0  0  0  0  0  0  0  0  0  0
++         0  0  0  0  0  0  0  0  0  0  0  0  0  0  0  0  0
++         0  0  0  0  0  0  0  0  0  0  0  0  0  0  0  0  0
++         0  0  0  0  0  0  0  0  0  0  0  0  0  0  0  0  0
++         0  0  0  0  0  0  0  0  0  0  0  0  0  0  0  0  0
++         0  0  0  0  0  0  0  0  0  0  0  0  0  0  0  0  0
%c cc cc ccc ccc cccc cccc cccc cccc ccccc ccccc ccccc ccccc
%c cc cc ccc ccc cccc cccc cccc cccc ccccc ccccc ccccc ccccc
%f  0.0000000  0.000000000  0.00000000000  0.000000000000000
%f  0.0000000  0.000000000  0.00000000000  0.000000000000000
%i    0    0    0    0      0      0      0      0         0
%i    0    0    0    0      0      0      0      0         0
/*      NGA, ST. LOUIS,MO.                                  
/*   EPHEMERIS COMPUTED FROM  3 DAYS OF DATA                
/* CCCCCCCCCCCCCCCCCCCCCCCCCCCCCCCCCCCCCCCCCCCCCCCCCCCCCCCCC
/* CCCCCCCCCCCCCCCCCCCCCCCCCCCCCCCCCCCCCCCCCCCCCCCCCCCCCCCCC
*  2010  3 14 16 45   .00000000                                                 
P  1 -19469.823281 -15614.058472  -9426.862109    -98.502607                    
V  1  11710.513788   2558.706216 -28622.341924      -.039899                    
P  2  22407.206204 -13204.326426  -4076.050770    236.247743                    
V  2  -1868.368432   6154.276531 -31007.005169       .038954                    
P  3 -12233.911662  12387.226213  19614.106651    528.090537                    
V  3  -7422.482810 -24873.493146  11227.050006       .051549                    
P  4  21558.582755  -1354.411773 -15855.615700     36.576890                    
V  4 -14735.663029  13307.935614 -21040.048916       .088806                    
P  5  18718.630480  -5604.839765  18007.800097     -3.770821                    
V  5  20333.795348  10614.826827 -17725.748174       .013391                    
P  6 -14381.690923   8129.476180  20959.433492    688.782202                    
V  6  -4940.432222 -25866.698109   6827.762925      -.072218                    
P  7   4948.549680  14646.590511  21570.155244      1.670399                    
V  7 -22447.285788  15717.936424  -5674.203535      -.004604                    
P  8  16297.171797   5456.910190  20384.552970      4.093462                    
V  8 -21468.038913  14116.936635  12865.529522       .002523                    
P  9  13461.679760 -20186.588745 -11417.066437    111.472725                    
V  9  11720.621168  -6885.894618  27649.289799       .022097                    
P 10  23376.862350   1015.042644  12703.480516    -37.839586                    
V 10  13803.310340   8981.407613 -25401.946237      -.008438                    
P 11  -6443.956507  22670.240703 -12155.878439    -50.544763                    
V 11 -13262.179658   8896.755666  24500.529137      -.022123                    
P 12   1242.066772 -15575.988039 -21440.893946   -138.825705                    
V 12  25068.841386  10837.897511  -6262.545622       .046225                    
P 13   5134.416874  25245.673646   6290.319513    306.053472                    
V 13  -1397.547737   8207.455183 -31148.788422      -.002227                    
P 14 -13629.137032 -11675.417263 -19487.485004     21.893830                    
V 14   -647.569689 -24938.474032  15170.390641       .041698                    
P 15   8180.285970 -20288.577313  15002.751489   -298.229333                    
V 15   4590.191174  18654.464491  22864.190899       .038707                    
P 16 -22709.564319   -112.825021  14042.093032    -51.035327                    
V 16 -15192.044375  -9093.862617 -24466.124209      -.039323                    
P 17  14492.569425  11066.594626 -19288.744892    136.938750                    
V 17    901.131770  24643.050552  14536.023139       .028727                    
P 18 -16447.382999 -17484.822813  12022.490760     55.135571                    
V 18  14481.687792   3942.336278  25735.241206       .025812                    
P 19  -9048.029320  20692.933273  13772.898093    -21.410230                    
V 19  -2976.818218 -17469.405677  24644.305433      -.023858                    
P 20   2421.592211  17091.928142 -20336.640493     59.544658                    
V 20 -24121.553721  -8608.612974 -10120.134420      -.006891                    
P 21 -10350.554930 -12211.671368  21524.560070    -46.659486                    
V 21  21831.063284 -15365.203366   1173.954661      -.024961                    
P 22 -23663.698681 -12128.304115   1039.305498    176.903832                    
V 22   2547.080369  -2705.472027  31094.863589      -.008638                    
P 23    -73.833570  26109.655039  -3896.400035    377.389724                    
V 23  -3264.472988  -4649.648975 -31616.842134      -.010825                    
P 24  -5999.645153 -14505.577345  21545.370858    270.419239                    
V 24  22820.020402 -14704.996005  -3315.028594       .032979                    
P 26  -6371.672285 -24386.356020  -8085.615591    -27.874843                    
V 26   1556.661442  -9711.948918  30497.165857      -.040197                    
P 27  15919.422458 -19540.640858  -7471.629323    134.078793                    
V 27   9594.530549  -4764.594233  30273.147900       .033363                    
P 28  22604.108171  13842.357236   3853.413990    -20.527722                    
V 28  -4807.869074    152.452113  31255.270353       .007169                    
P 29  -4938.114679 -25796.920629   4179.186265    105.012394                    
V 29   2316.886612  -5381.178311 -31141.869123       .028796                    
P 30 -10185.700795 -17415.077704 -17693.219245    224.505033                    
V 30  20810.497577   6364.907145 -18603.191394       .034019                    
P 31 -21972.103150   4083.206066 -14270.510849    -47.416380                    
V 31  13844.805795 -12227.189190 -24282.056779       .018370                    
P 32  -8374.812285  12572.510939 -21481.944272     74.555674                    
V 32 -24528.534696 -13794.408004   1785.054544      -.085522                    
EOF
